[{"OBJECT_NAME":"OBJECT C","OBJECT_ID":"2023-104C","EPOCH":"2026-03-09T22:39:44.230752","MEAN_MOTION":15.26846312,"ECCENTRICITY":0.00113074,"INCLINATION":97.273,"RA_OF_ASC_NODE":135.3333,"ARG_OF_PERICENTER":3.876,"MEAN_ANOMALY":356.2565,"EPHEMERIS_TYPE":0,"CLASSIFICATION_TYPE":"U","NORAD_CAT_ID":57426,"ELEMENT_SET_NO":999,"REV_AT_EPOCH":14663,"BSTAR":0.00062618506,"MEAN_MOTION_DOT":0.00016495,"MEAN_MOTION_DDOT":0},{"OBJECT_NAME":"STARLINK-31218","OBJECT_ID":"2024-020V","EPOCH":"2026-03-09T23:32:55.829472","MEAN_MOTION":15.30169618,"ECCENTRICITY":0.00015152,"INCLINATION":53.1589,"RA_OF_ASC_NODE":321.2154,"ARG_OF_PERICENTER":123.2578,"MEAN_ANOMALY":236.8568,"EPHEMERIS_TYPE":0,"CLASSIFICATION_TYPE":"U","NORAD_CAT_ID":58895,"ELEMENT_SET_NO":999,"REV_AT_EPOCH":11811,"BSTAR":-0.00073690785,"MEAN_MOTION_DOT":-0.000221,"MEAN_MOTION_DDOT":0}]
